{
    "links": {
        "self": "http://www.neowsapp.com/rest/v1/neo/3551522?api_key=iIulBulltgU6a56xZRHN4H3l9WmuAYTsLGpBGhQ2"
    },
    "id": "3551522",
    "neo_reference_id": "3551522",
    "name": "(2010 VW139)",
    "designation": "2010 VW139",
    "nasa_jpl_url": "http://ssd.jpl.nasa.gov/sbdb.cgi?sstr=3551522",
    "absolute_magnitude_h": 24.4,
    "estimated_diameter": {
        "kilometers": {
            "estimated_diameter_min": 0.0350392641,
            "estimated_diameter_max": 0.0783501764
        },
        "meters": {
            "estimated_diameter_min": 35.0392641108,
            "estimated_diameter_max": 78.3501764334
        },
        "miles": {
            "estimated_diameter_min": 0.0217723826,
            "estimated_diameter_max": 0.0486845275
        },
        "feet": {
            "estimated_diameter_min": 114.9582192654,
            "estimated_diameter_max": 257.0543928497
        }
    },
    "is_potentially_hazardous_asteroid": false,
    "close_approach_data": [
        {
            "close_approach_date": "2008-09-09",
            "close_approach_date_full": "2008-Sep-09 09:17",
            "epoch_date_close_approach": 1220951820000,
            "relative_velocity": {
                "kilometers_per_second": "13.9532605661",
                "kilometers_per_hour": "50231.7380381314",
                "miles_per_hour": "31212.0485604156"
            },
            "miss_distance": {
                "astronomical": "0.3679400776",
                "lunar": "143.1286901864",
                "kilometers": "55043051.896594712",
                "miles": "34202166.4730105456"
            },
            "orbiting_body": "Earth"
        },
        {
            "close_approach_date": "2010-11-10",
            "close_approach_date_full": "2010-Nov-10 00:00",
            "epoch_date_close_approach": 1289347200000,
            "relative_velocity": {
                "kilometers_per_second": "7.5679282273",
                "kilometers_per_hour": "27244.5416181791",
                "miles_per_hour": "16928.6986515847"
            },
            "miss_distance": {
                "astronomical": "0.0598505915",
                "lunar": "23.2818800935",
                "kilometers": "8953521.006640105",
                "miles": "5563459.972459249"
            },
            "orbiting_body": "Earth"
        },
        {
            "close_approach_date": "2012-12-05",
            "close_approach_date_full": "2012-Dec-05 16:08",
            "epoch_date_close_approach": 1354723680000,
            "relative_velocity": {
                "kilometers_per_second": "17.2638149985",
                "kilometers_per_hour": "62149.7339946842",
                "miles_per_hour": "38617.427770197"
            },
            "miss_distance": {
                "astronomical": "0.3992594701",
                "lunar": "155.3119338689",
                "kilometers": "59728366.304288687",
                "miles": "37113485.8462784006"
            },
            "orbiting_body": "Earth"
        }
    ],
    "orbital_data": {
        "orbit_id": "8",
        "orbit_determination_date": "2017-04-06 08:55:41",
        "first_observation_date": "2010-11-14",
        "last_observation_date": "2010-11-19",
        "data_arc_in_days": 5,
        "observations_used": 33,
        "orbit_uncertainty": "8",
        "minimum_orbit_intersection": ".0595386",
        "jupiter_tisserand_invariant": "4.233",
        "epoch_osculation": "2455515.5",
        "eccentricity": ".3663283357782248",
        "semi_major_axis": "1.620128774925424",
        "inclination": "10.43153077264776",
        "ascending_node_longitude": "57.26118808166757",
        "orbital_period": "753.221538383791",
        "perihelion_distance": "1.026629697060579",
        "perihelion_argument": "331.6958611343004",
        "aphelion_distance": "2.213627852790268",
        "perihelion_time": "2455493.554099508344",
        "mean_anomaly": "10.48897804216876",
        "mean_motion": ".4779470337139619",
        "equinox": "J2000",
        "orbit_class": {
            "orbit_class_type": "AMO",
            "orbit_class_description": "Near-Earth asteroid orbits similar to that of 1221 Amor",
            "orbit_class_range": "1.017 AU < q (perihelion) < 1.3 AU"
        }
    },
    "is_sentry_object": false
}